[{"OBJECT_NAME":"NEXTSAT-2","OBJECT_ID":"2023-072A","EPOCH":"2026-03-09T23:10:55.073280","MEAN_MOTION":15.26393087,"ECCENTRICITY":0.00062633,"INCLINATION":97.5306,"RA_OF_ASC_NODE":265.1019,"ARG_OF_PERICENTER":22.4193,"MEAN_ANOMALY":337.7318,"EPHEMERIS_TYPE":0,"CLASSIFICATION_TYPE":"U","NORAD_CAT_ID":56743,"ELEMENT_SET_NO":999,"REV_AT_EPOCH":15445,"BSTAR":0.00056400163,"MEAN_MOTION_DOT":0.00014622,"MEAN_MOTION_DDOT":0},{"OBJECT_NAME":"STARLINK-36080","OBJECT_ID":"2025-278L","EPOCH":"2026-03-09T13:16:27.554880","MEAN_MOTION":15.27585483,"ECCENTRICITY":0.0002022,"INCLINATION":43.0031,"RA_OF_ASC_NODE":115.5345,"ARG_OF_PERICENTER":263.5318,"MEAN_ANOMALY":96.5303,"EPHEMERIS_TYPE":0,"CLASSIFICATION_TYPE":"U","NORAD_CAT_ID":66801,"ELEMENT_SET_NO":999,"REV_AT_EPOCH":1518,"BSTAR":0.00075479,"MEAN_MOTION_DOT":0.0002057,"MEAN_MOTION_DDOT":0}]
